STARLINK-34198          
1 64388U 25127U   26068.31274676  .00027465  00000+0  10034-2 0  9997
2 64388  42.9952 181.5401 0001364 174.3802 185.7065 15.27593906 42411
BANDWAGON-4 OBJECT Q    
1 66307U 25248Q   26067.98911828  .00022547  00000+0  92242-3 0  9991
2 66307  45.4076 295.4821 0011280 209.4727 150.5526 15.23978167 19300
